{
  "type": "FeatureCollection",
  "features": [
    {
      "type": "Feature",
      "properties": {
        "norad_id": 31980,
        "name": "FENGYUN 1C DEB",
        "group": "fengyun-1c-debris",
        "lat": -17.640310142059,
        "lon": 85.31243903565512,
        "alt_km": 1148.7414559953613,
        "timestamp": "2025-12-27T07:26:25.507044+00:00",
        "meta_object_name": "FENGYUN 1C DEB",
        "meta_object_id": "1999-025CPH",
        "meta_epoch": "2025-12-26T09:53:53.856960",
        "meta_mean_motion": 13.32161651,
        "meta_eccentricity": 0.0427985,
        "meta_inclination": 97.6112,
        "meta_ra_of_asc_node": 82.2075,
        "meta_arg_of_pericenter": 78.0052,
        "meta_mean_anomaly": 286.8706,
        "meta_ephemeris_type": 0,
        "meta_classification_type": "U",
        "meta_norad_cat_id": 31980,
        "meta_element_set_no": 999,
        "meta_rev_at_epoch": 89852,
        "meta_bstar": 0.00048346,
        "meta_mean_motion_dot": 3.65e-06,
        "meta_mean_motion_ddot": 0,
        "tle_line1": "1 31980U 99025CPH 25360.41242890  .00000365  00000+0  48346-3 0  9993",
        "tle_line2": "2 31980  97.6112  82.2075 0427985  78.0052 286.8706 13.32161651898528"
      },
      "geometry": {
        "type": "Point",
        "coordinates": [
          85.31243903565512,
          -17.640310142059
        ]
      }
    },
    {
      "type": "Feature",
      "properties": {
        "norad_id": 31984,
        "name": "FENGYUN 1C DEB",
        "group": "fengyun-1c-debris",
        "lat": 56.35868881166403,
        "lon": -7.842434829625458,
        "alt_km": 837.1261557316402,
        "timestamp": "2025-12-27T07:26:25.507056+00:00",
        "meta_object_name": "FENGYUN 1C DEB",
        "meta_object_id": "1999-025CPM",
        "meta_epoch": "2025-12-18T07:09:32.915232",
        "meta_mean_motion": 14.22968839,
        "meta_eccentricity": 0.00628019,
        "meta_inclination": 98.5578,
        "meta_ra_of_asc_node": 356.4784,
        "meta_arg_of_pericenter": 210.9858,
        "meta_mean_anomaly": 148.7609,
        "meta_ephemeris_type": 0,
        "meta_classification_type": "U",
        "meta_norad_cat_id": 31984,
        "meta_element_set_no": 999,
        "meta_rev_at_epoch": 94452,
        "meta_bstar": 0.00030022048,
        "meta_mean_motion_dot": 6.47e-06,
        "meta_mean_motion_ddot": 0,
        "tle_line1": "1 31984U 99025CPM 25352.29829763  .00000647  00000+0  30022-3 0  9999",
        "tle_line2": "2 31984  98.5578 356.4784 0062801 210.9858 148.7609 14.22968839944527"
      },
      "geometry": {
        "type": "Point",
        "coordinates": [
          -7.842434829625458,
          56.35868881166403
        ]
      }
    },
    {
      "type": "Feature",
      "properties": {
        "norad_id": 31985,
        "name": "FENGYUN 1C DEB",
        "group": "fengyun-1c-debris",
        "lat": -12.531812569969507,
        "lon": 79.73602515259367,
        "alt_km": 713.1032997032044,
        "timestamp": "2025-12-27T07:26:25.507068+00:00",
        "meta_object_name": "FENGYUN 1C DEB",
        "meta_object_id": "1999-025CPN",
        "meta_epoch": "2025-12-23T13:05:30.625440",
        "meta_mean_motion": 14.22990386,
        "meta_eccentricity": 0.01508831,
        "meta_inclination": 98.2195,
        "meta_ra_of_asc_node": 258.061,
        "meta_arg_of_pericenter": 214.7786,
        "meta_mean_anomaly": 144.346,
        "meta_ephemeris_type": 0,
        "meta_classification_type": "U",
        "meta_norad_cat_id": 31985,
        "meta_element_set_no": 999,
        "meta_rev_at_epoch": 95764,
        "meta_bstar": 0.00026019142,
        "meta_mean_motion_dot": 6.17e-06,
        "meta_mean_motion_ddot": 0,
        "tle_line1": "1 31985U 99025CPN 25357.54549335  .00000617  00000+0  26019-3 0  9995",
        "tle_line2": "2 31985  98.2195 258.0610 0150883 214.7786 144.3460 14.22990386957641"
      },
      "geometry": {
        "type": "Point",
        "coordinates": [
          79.73602515259367,
          -12.531812569969507
        ]
      }
    },
    {
      "type": "Feature",
      "properties": {
        "norad_id": 31987,
        "name": "FENGYUN 1C DEB",
        "group": "fengyun-1c-debris",
        "lat": 46.605958444837285,
        "lon": -33.85426634142803,
        "alt_km": 723.1331836009849,
        "timestamp": "2025-12-27T07:26:25.507078+00:00",
        "meta_object_name": "FENGYUN 1C DEB",
        "meta_object_id": "1999-025CPQ",
        "meta_epoch": "2025-12-26T21:23:23.180928",
        "meta_mean_motion": 14.45004189,
        "meta_eccentricity": 0.00522099,
        "meta_inclination": 99.0402,
        "meta_ra_of_asc_node": 335.3947,
        "meta_arg_of_pericenter": 115.6123,
        "meta_mean_anomaly": 275.1439,
        "meta_ephemeris_type": 0,
        "meta_classification_type": "U",
        "meta_norad_cat_id": 31987,
        "meta_element_set_no": 999,
        "meta_rev_at_epoch": 96574,
        "meta_bstar": 0.0011821989,
        "meta_mean_motion_dot": 4.147e-05,
        "meta_mean_motion_ddot": 0,
        "tle_line1": "1 31987U 99025CPQ 25360.89124052  .00004147  00000+0  11822-2 0  9991",
        "tle_line2": "2 31987  99.0402 335.3947 0052209 115.6123 275.1439 14.45004189965743"
      },
      "geometry": {
        "type": "Point",
        "coordinates": [
          -33.85426634142803,
          46.605958444837285
        ]
      }
    },
    {
      "type": "Feature",
      "properties": {
        "norad_id": 31989,
        "name": "FENGYUN 1C DEB",
        "group": "fengyun-1c-debris",
        "lat": 6.697022251887152,
        "lon": -116.50075766663291,
        "alt_km": 911.3242477514023,
        "timestamp": "2025-12-27T07:26:25.507088+00:00",
        "meta_object_name": "FENGYUN 1C DEB",
        "meta_object_id": "1999-025CPS",
        "meta_epoch": "2025-12-26T15:49:47.629056",
        "meta_mean_motion": 13.93609535,
        "meta_eccentricity": 0.0115398,
        "meta_inclination": 99.2116,
        "meta_ra_of_asc_node": 61.7596,
        "meta_arg_of_pericenter": 261.0092,
        "meta_mean_anomaly": 251.9301,
        "meta_ephemeris_type": 0,
        "meta_classification_type": "U",
        "meta_norad_cat_id": 31989,
        "meta_element_set_no": 999,
        "meta_rev_at_epoch": 93911,
        "meta_bstar": 0.0005132,
        "meta_mean_motion_dot": 6.66e-06,
        "meta_mean_motion_ddot": 0,
        "tle_line1": "1 31989U 99025CPS 25360.65957904  .00000666  00000+0  51320-3 0  9997",
        "tle_line2": "2 31989  99.2116  61.7596 0115398 261.0092 251.9301 13.93609535939119"
      },
      "geometry": {
        "type": "Point",
        "coordinates": [
          -116.50075766663291,
          6.697022251887152
        ]
      }
    },
    {
      "type": "Feature",
      "properties": {
        "norad_id": 31990,
        "name": "FENGYUN 1C DEB",
        "group": "fengyun-1c-debris",
        "lat": 14.152211168308913,
        "lon": -154.8556658138364,
        "alt_km": 862.4555967417937,
        "timestamp": "2025-12-27T07:26:25.507098+00:00",
        "meta_object_name": "FENGYUN 1C DEB",
        "meta_object_id": "1999-025CPT",
        "meta_epoch": "2025-12-26T07:44:19.801824",
        "meta_mean_motion": 13.57209467,
        "meta_eccentricity": 0.0260523,
        "meta_inclination": 99.1596,
        "meta_ra_of_asc_node": 21.8922,
        "meta_arg_of_pericenter": 149.8306,
        "meta_mean_anomaly": 232.1284,
        "meta_ephemeris_type": 0,
        "meta_classification_type": "U",
        "meta_norad_cat_id": 31990,
        "meta_element_set_no": 999,
        "meta_rev_at_epoch": 62956,
        "meta_bstar": 0.00028173,
        "meta_mean_motion_dot": 2.12e-06,
        "meta_mean_motion_ddot": 0,
        "tle_line1": "1 31990U 99025CPT 25360.32245141  .00000212  00000+0  28173-3 0  9993",
        "tle_line2": "2 31990  99.1596  21.8922 0260523 149.8306 232.1284 13.57209467629560"
      },
      "geometry": {
        "type": "Point",
        "coordinates": [
          -154.8556658138364,
          14.152211168308913
        ]
      }
    },
    {
      "type": "Feature",
      "properties": {
        "norad_id": 31991,
        "name": "FENGYUN 1C DEB",
        "group": "fengyun-1c-debris",
        "lat": 39.96402460496887,
        "lon": -177.5624145565213,
        "alt_km": 860.8297631928745,
        "timestamp": "2025-12-27T07:26:25.507110+00:00",
        "meta_object_name": "FENGYUN 1C DEB",
        "meta_object_id": "1999-025CPU",
        "meta_epoch": "2025-12-22T17:53:19.962816",
        "meta_mean_motion": 13.61281478,
        "meta_eccentricity": 0.02444249,
        "meta_inclination": 100.486,
        "meta_ra_of_asc_node": 186.4677,
        "meta_arg_of_pericenter": 28.7327,
        "meta_mean_anomaly": 332.7029,
        "meta_ephemeris_type": 0,
        "meta_classification_type": "U",
        "meta_norad_cat_id": 31991,
        "meta_element_set_no": 999,
        "meta_rev_at_epoch": 62223,
        "meta_bstar": 0.00015589041,
        "meta_mean_motion_dot": 9.4e-07,
        "meta_mean_motion_ddot": 0,
        "tle_line1": "1 31991U 99025CPU 25356.74536994  .00000094  00000+0  15589-3 0  9999",
        "tle_line2": "2 31991 100.4860 186.4677 0244424  28.7327 332.7029 13.61281478622234"
      },
      "geometry": {
        "type": "Point",
        "coordinates": [
          -177.5624145565213,
          39.96402460496887
        ]
      }
    }
  ]
}